STARLINK-32690          
1 62453U 24251X   26203.63828455  .00035849  00000+0  10654-2 0  9994
2 62453  53.1581  67.4872 0002852 117.4240 242.7053 15.34447221 88243
ASTRANIS UTILITYSAT     
1 62454U 24252A   26203.97757652 -.00000036  00000+0  00000+0 0  9995
2 62454   9.1390 326.1316 7537720 257.3670  17.5442  1.00288920  5781
NUVIEW ALPHA            
1 62455U 24252B   26204.52452472 -.00000210  00000+0  00000+0 0  9994
2 62455   0.0390  16.1130 0000935  64.2611 326.6038  1.00271467  4184
AGILA                   
1 62456U 24252C   26204.57117833 -.00000177  00000+0  00000+0 0  9991
2 62456   0.0426 211.7272 0001595 277.3715 169.9813  1.00271045  5520
NUVIEW BRAVO            
1 62457U 24252D   26204.52452472 -.00000210  00000+0  00000+0 0  9996
2 62457   0.0675 170.1923 0001909 336.4608 260.3331  1.00272830  4157
SDX01                   
1 62459U 24253A   26204.40334196  .00089206  00000+0  56978-3 0  9998
2 62459  54.9921 176.2015 0005926  37.2506 322.8949 15.75669877 88234
SDX02                   
1 62460U 24253B   26204.40443131  .00086412  00000+0  55368-3 0  9998
2 62460  54.9929 176.2125 0005878  36.2991 323.8451 15.75611107 88220
STARLINK-11518 [DTC]    
1 62462U 24254A   26204.48283834  .00203534  00000+0  15464-2 0  9999
2 62462  43.0006 124.8560 0001030 325.4557  34.6243 15.70912762 90760
STARLINK-11455 [DTC]    
1 62463U 24254B   26203.00002315 -.00323134  00000+0 -25970-2 0  9994
2 62463  42.9998 133.8695 0001364 258.1723 316.3127 15.70992541  5877
STARLINK-11178 [DTC]    
1 62465U 24254D   26204.47223071  .00194598  00000+0  14825-2 0  9997
2 62465  42.9997 124.7662 0001328  22.2028 337.8897 15.70876378 90593
STARLINK-11506 [DTC]    
1 62466U 24254E   26204.23899231  .00129930  00000+0  99977-3 0  9999
2 62466  43.0003 125.5746 0001905 249.5653 110.5010 15.70852522 90560
STARLINK-11486 [DTC]    
1 62467U 24254F   26204.15961126  .00177473  00000+0  13559-2 0  9990
2 62467  43.0002 126.7249 0001778 266.2982  93.7682 15.70863568 90705
STARLINK-11511 [DTC]    
1 62468U 24254G   26204.13837338  .00232043  00000+0  17606-2 0  9998
2 62468  43.0007 126.5542 0001901 284.6713  75.3944 15.70856262 90709
STARLINK-11505 [DTC]    
1 62469U 24254H   26204.19134031  .00221072  00000+0  16784-2 0  9991
2 62469  43.0004 126.0859 0001328 271.5177  88.5539 15.70876726 90708
STARLINK-11497 [DTC]    
1 62470U 24254J   26204.20727167  .00157350  00000+0  12062-2 0  9995
2 62470  42.9988 126.2126 0000329 246.4314 113.6519 15.70849200 90718
STARLINK-11477 [DTC]    
1 62471U 24254K   26204.50395678  .00244725  00000+0  18542-2 0  9999
2 62471  43.0006 124.1277 0000287  24.0685 336.0196 15.70850619 90752
STARLINK-11500 [DTC]    
1 62472U 24254L   26204.24430283  .00169878  00000+0  12989-2 0  9997
2 62472  42.9999 125.6152 0001518 248.1126 111.9580 15.70869304 90193
STARLINK-11464 [DTC]    
1 62473U 24254M   26204.14899075  .00174145  00000+0  13286-2 0  9999
2 62473  43.0013 126.6391 0002861 257.8284 102.2263 15.70905689 90753
STARLINK-11502 [DTC]    
1 62474U 24254N   26203.81514552  .00339859  00000+0  25508-2 0  9992
2 62474  42.9994 128.4257 0001279 276.1293  83.9429 15.70787501 90656
STARLINK-32657          
1 62475U 24254P   26204.61987085  .00016385  00000+0  60360-3 0  9999
2 62475  43.0026 332.0085 0000983 282.2828  77.7913 15.27581605 88251
STARLINK-32734          
1 62476U 24254Q   26204.38193495  .00022160  00000+0  81234-3 0  9999
2 62476  43.0016 330.1995 0000947 252.7285 107.3463 15.27581357 88400
STARLINK-32733          
1 62477U 24254R   26204.40748706  .00010725  00000+0  39883-3 0  9991
2 62477  43.0032 329.5247 0001843 279.7515  80.3129 15.27569686 88413
STARLINK-32707          
1 62478U 24254S   26204.04472839  .00027447  00000+0  10034-2 0  9998
2 62478  42.9991 331.9657 0001228 296.9985  63.0741 15.27572060 88358
STARLINK-32705          
1 62479U 24254T   26204.38660806  .00014525  00000+0  53637-3 0  9999
2 62479  42.9994 322.4435 0001603 191.0117 169.0700 15.27576602 88336
STARLINK-32743          
1 62480U 24254U   26204.33438741 -.00003992  00000+0 -13562-3 0  9998
2 62480  43.0091 329.8411 0002895 265.2109  94.8412 15.27566046 88406
STARLINK-32753          
1 62481U 24254V   26204.61135628  .00020408  00000+0  74892-3 0  9990
2 62481  43.0020 328.4736 0000641 274.9068  85.1711 15.27586862 88449
STARLINK-32699          
1 62482U 24254W   26204.41728103  .00010502  00000+0  39050-3 0  9996
2 62482  43.0002 333.0625 0000774 231.9208 128.1574 15.27588117 88221
THURAYA-4               
1 62483U 25001A   26204.35669891  .00000144  00000+0  00000+0 0  9999
2 62483   0.0199  76.9748 0000330  62.7418 334.0969  1.00272811  4548
SHIJIAN-25 (SJ-25)      
1 62485U 25002A   26203.56829690 -.00000350  00000+0  00000+0 0  9999
2 62485   5.1950  60.9361 0050731 176.6753  34.4537  1.00275607  5710
STARLINK-32713          
1 62487U 25003A   26204.38508500  .00007131  00000+0  26838-3 0  9991
2 62487  42.9991 242.7078 0001984 279.9483  80.1145 15.27585459 87406
