OBJECT_NAME,OBJECT_ID,EPOCH,MEAN_MOTION,ECCENTRICITY,INCLINATION,RA_OF_ASC_NODE,ARG_OF_PERICENTER,MEAN_ANOMALY,EPHEMERIS_TYPE,CLASSIFICATION_TYPE,NORAD_CAT_ID,ELEMENT_SET_NO,REV_AT_EPOCH,BSTAR,MEAN_MOTION_DOT,MEAN_MOTION_DDOT
STARLINK-32690,2024-251X,2026-07-22T15:19:07.785120,15.34447221,.00028524,53.1581,67.4872,117.4240,242.7053,0,U,62453,999,8824,.10654283E-2,.35849E-3,0
ASTRANIS UTILITYSAT,2024-252A,2026-07-22T23:27:42.611328,1.00288920,.75377202,9.1390,326.1316,257.3670,17.5442,0,U,62454,999,578,0,-.36E-6,0
NUVIEW ALPHA,2024-252B,2026-07-23T12:35:18.935808,1.00271467,.00009357,0.0390,16.1130,64.2611,326.6038,0,U,62455,999,418,0,-.21E-5,0
AGILA,2024-252C,2026-07-23T13:42:29.807712,1.00271045,.00015951,0.0426,211.7272,277.3715,169.9813,0,U,62456,999,552,0,-.177E-5,0
NUVIEW BRAVO,2024-252D,2026-07-23T12:35:18.935808,1.00272830,.0001909,0.0675,170.1923,336.4608,260.3331,0,U,62457,999,415,0,-.21E-5,0
SDX01,2024-253A,2026-07-23T09:40:48.745344,15.75669877,.00059267,54.9921,176.2015,37.2506,322.8949,0,U,62459,999,8823,.56978397E-3,.89206E-3,0
SDX02,2024-253B,2026-07-23T09:42:22.865184,15.75611107,.00058789,54.9929,176.2125,36.2991,323.8451,0,U,62460,999,8822,.5536752E-3,.86412E-3,0
STARLINK-11518 [DTC],2024-254A,2026-07-23T11:35:17.232576,15.70912762,.000103,43.0006,124.8560,325.4557,34.6243,0,U,62462,999,9076,.15464291E-2,.203534E-2,0
STARLINK-11455 [DTC],2024-254B,2026-07-22T00:00:02.000160,15.70992541,.00013642,42.9998,133.8695,258.1723,316.3127,0,U,62463,999,587,-.25970047E-2,-.323134E-2,0
STARLINK-11178 [DTC],2024-254D,2026-07-23T11:20:00.733344,15.70876378,.00013282,42.9997,124.7662,22.2028,337.8897,0,U,62465,999,9059,.14825492E-2,.194598E-2,0
STARLINK-11506 [DTC],2024-254E,2026-07-23T05:44:08.935584,15.70852522,.00019059,43.0003,125.5746,249.5653,110.5010,0,U,62466,999,9056,.99976784E-3,.12993E-2,0
STARLINK-11486 [DTC],2024-254F,2026-07-23T03:49:50.412864,15.70863568,.00017788,43.0002,126.7249,266.2982,93.7682,0,U,62467,999,9070,.13558983E-2,.177473E-2,0
STARLINK-11511 [DTC],2024-254G,2026-07-23T03:19:15.460032,15.70856262,.00019012,43.0007,126.5542,284.6713,75.3944,0,U,62468,999,9070,.17606225E-2,.232043E-2,0
STARLINK-11505 [DTC],2024-254H,2026-07-23T04:35:31.802784,15.70876726,.00013283,43.0004,126.0859,271.5177,88.5539,0,U,62469,999,9070,.16783515E-2,.221072E-2,0
STARLINK-11497 [DTC],2024-254J,2026-07-23T04:58:28.272288,15.70849200,.00003292,42.9988,126.2126,246.4314,113.6519,0,U,62470,999,9071,.12062081E-2,.15735E-2,0
STARLINK-11477 [DTC],2024-254K,2026-07-23T12:05:41.865792,15.70850619,.00002876,43.0006,124.1277,24.0685,336.0196,0,U,62471,999,9075,.18541814E-2,.244725E-2,0
STARLINK-11500 [DTC],2024-254L,2026-07-23T05:51:47.764512,15.70869304,.00015184,42.9999,125.6152,248.1126,111.9580,0,U,62472,999,9019,.12989163E-2,.169878E-2,0
STARLINK-11464 [DTC],2024-254M,2026-07-23T03:34:32.800800,15.70905689,.00028613,43.0013,126.6391,257.8284,102.2263,0,U,62473,999,9075,.13286174E-2,.174145E-2,0
STARLINK-11502 [DTC],2024-254N,2026-07-22T19:33:48.572928,15.70787501,.00012795,42.9994,128.4257,276.1293,83.9429,0,U,62474,999,9065,.25508367E-2,.339859E-2,0
STARLINK-32657,2024-254P,2026-07-23T14:52:36.841440,15.27581605,.0000983,43.0026,332.0085,282.2828,77.7913,0,U,62475,999,8825,.60359512E-3,.16385E-3,0
STARLINK-32734,2024-254Q,2026-07-23T09:09:59.179680,15.27581357,.00009477,43.0016,330.1995,252.7285,107.3463,0,U,62476,999,8840,.81233826E-3,.2216E-3,0
STARLINK-32733,2024-254R,2026-07-23T09:46:46.881984,15.27569686,.0001843,43.0032,329.5247,279.7515,80.3129,0,U,62477,999,8841,.39883388E-3,.10725E-3,0
STARLINK-32707,2024-254S,2026-07-23T01:04:24.532896,15.27572060,.00012283,42.9991,331.9657,296.9985,63.0741,0,U,62478,999,8835,.1003447E-2,.27447E-3,0
STARLINK-32705,2024-254T,2026-07-23T09:16:42.936384,15.27576602,.00016039,42.9994,322.4435,191.0117,169.0700,0,U,62479,999,8833,.53636967E-3,.14525E-3,0
STARLINK-32743,2024-254U,2026-07-23T08:01:31.072224,15.27566046,.00028951,43.0091,329.8411,265.2109,94.8412,0,U,62480,999,8840,-.1356201E-3,-.3992E-4,0
STARLINK-32753,2024-254V,2026-07-23T14:40:21.182592,15.27586862,.00006419,43.0020,328.4736,274.9068,85.1711,0,U,62481,999,8844,.74891606E-3,.20408E-3,0
STARLINK-32699,2024-254W,2026-07-23T10:00:53.080992,15.27588117,.00007742,43.0002,333.0625,231.9208,128.1574,0,U,62482,999,8822,.39049575E-3,.10502E-3,0
THURAYA-4,2025-001A,2026-07-23T08:33:38.785824,1.00272811,.00003301,0.0199,76.9748,62.7418,334.0969,0,U,62483,999,454,0,.144E-5,0
SHIJIAN-25 (SJ-25),2025-002A,2026-07-22T13:38:20.852160,1.00275607,.0050731,5.1950,60.9361,176.6753,34.4537,0,U,62485,999,571,0,-.35E-5,0
STARLINK-32713,2025-003A,2026-07-23T09:14:31.344000,15.27585459,.00019849,42.9991,242.7078,279.9483,80.1145,0,U,62487,999,8740,.26837979E-3,.7131E-4,0
